CSS (TIANHE)            
1 48274U 21035A   24257.46396070  .00046106  00000+0  47640-3 0  9991
2 48274  41.4676 264.9479 0001701 132.8847 227.2136 15.63939703192908
